HIMAWARI-8              
1 40267U 14060A   23200.76785639 -.00000274  00000+0  00000+0 0  9990
2 40267   0.0170  12.8814 0000548  95.7902 245.7022  1.00272384 32208
